{
  "type": "FeatureCollection",
  "features": [
    {
      "type": "Feature",
      "properties": {
        "norad_id": 63772,
        "name": "BIOMASS",
        "group": "resource",
        "lat": 15.58423391757088,
        "lon": -15.681102912868264,
        "alt_km": 669.569827938245,
        "timestamp": "2025-12-02T21:34:00.931139+00:00",
        "meta_object_name": "BIOMASS",
        "meta_object_id": "2025-090A",
        "meta_epoch": "2025-12-02T11:00:11.877120",
        "meta_mean_motion": 14.67543778,
        "meta_eccentricity": 0.000121,
        "meta_inclination": 98.0707,
        "meta_ra_of_asc_node": 161.6172,
        "meta_arg_of_pericenter": 82.8919,
        "meta_mean_anomaly": 277.2423,
        "meta_ephemeris_type": 0,
        "meta_classification_type": "U",
        "meta_norad_cat_id": 63772,
        "meta_element_set_no": 999,
        "meta_rev_at_epoch": 3183,
        "meta_bstar": 0.00034348,
        "meta_mean_motion_dot": 1.9e-05,
        "meta_mean_motion_ddot": 0,
        "tle_line1": "1 63772U 25090A   25336.45847080  .00001900  00000+0  34348-3 0  9990",
        "tle_line2": "2 63772  98.0707 161.6172 0001210  82.8919 277.2423 14.67543778 31837"
      },
      "geometry": {
        "type": "Point",
        "coordinates": [
          -15.681102912868264,
          15.58423391757088
        ]
      }
    },
    {
      "type": "Feature",
      "properties": {
        "norad_id": 64694,
        "name": "GOSAT-GW (IBUKI GW)",
        "group": "resource",
        "lat": 12.522609428487131,
        "lon": -89.20949881432156,
        "alt_km": 669.5771357728217,
        "timestamp": "2025-12-02T21:34:00.931149+00:00",
        "meta_object_name": "GOSAT-GW (IBUKI GW)",
        "meta_object_id": "2025-141A",
        "meta_epoch": "2025-11-30T05:41:32.267328",
        "meta_mean_motion": 14.67567435,
        "meta_eccentricity": 0.00014369,
        "meta_inclination": 98.0401,
        "meta_ra_of_asc_node": 269.9775,
        "meta_arg_of_pericenter": 82.921,
        "meta_mean_anomaly": 277.2158,
        "meta_ephemeris_type": 0,
        "meta_classification_type": "U",
        "meta_norad_cat_id": 64694,
        "meta_element_set_no": 999,
        "meta_rev_at_epoch": 2266,
        "meta_bstar": 0.00019762357,
        "meta_mean_motion_dot": 1.074e-05,
        "meta_mean_motion_ddot": 0,
        "tle_line1": "1 64694U 25141A   25334.23717902  .00001074  00000+0  19762-3 0  9999",
        "tle_line2": "2 64694  98.0401 269.9775 0001436  82.9210 277.2158 14.67567435 22660"
      },
      "geometry": {
        "type": "Point",
        "coordinates": [
          -89.20949881432156,
          12.522609428487131
        ]
      }
    },
    {
      "type": "Feature",
      "properties": {
        "norad_id": 64876,
        "name": "IONOSFERA-M 3",
        "group": "resource",
        "lat": -26.38211381635367,
        "lon": 114.75086827810354,
        "alt_km": 827.2938601924907,
        "timestamp": "2025-12-02T21:34:00.931160+00:00",
        "meta_object_name": "IONOSFERA-M 3",
        "meta_object_id": "2025-155A",
        "meta_epoch": "2025-12-02T12:09:04.530816",
        "meta_mean_motion": 14.21436885,
        "meta_eccentricity": 0.0002402,
        "meta_inclination": 98.5768,
        "meta_ra_of_asc_node": 298.6628,
        "meta_arg_of_pericenter": 75.8607,
        "meta_mean_anomaly": 284.2838,
        "meta_ephemeris_type": 0,
        "meta_classification_type": "U",
        "meta_norad_cat_id": 64876,
        "meta_element_set_no": 999,
        "meta_rev_at_epoch": 1846,
        "meta_bstar": 7.2625e-05,
        "meta_mean_motion_dot": 1.16e-06,
        "meta_mean_motion_ddot": 0,
        "tle_line1": "1 64876U 25155A   25336.50630244  .00000116  00000+0  72625-4 0  9995",
        "tle_line2": "2 64876  98.5768 298.6628 0002402  75.8607 284.2838 14.21436885 18464"
      },
      "geometry": {
        "type": "Point",
        "coordinates": [
          114.75086827810354,
          -26.38211381635367
        ]
      }
    },
    {
      "type": "Feature",
      "properties": {
        "norad_id": 64877,
        "name": "IONOSFERA-M 4",
        "group": "resource",
        "lat": 26.749702534772275,
        "lon": -65.3989205030275,
        "alt_km": 818.542498001154,
        "timestamp": "2025-12-02T21:34:00.931170+00:00",
        "meta_object_name": "IONOSFERA-M 4",
        "meta_object_id": "2025-155B",
        "meta_epoch": "2025-12-02T11:18:13.096224",
        "meta_mean_motion": 14.21437888,
        "meta_eccentricity": 0.0001763,
        "meta_inclination": 98.5767,
        "meta_ra_of_asc_node": 298.5482,
        "meta_arg_of_pericenter": 74.1571,
        "meta_mean_anomaly": 285.9801,
        "meta_ephemeris_type": 0,
        "meta_classification_type": "U",
        "meta_norad_cat_id": 64877,
        "meta_element_set_no": 999,
        "meta_rev_at_epoch": 1845,
        "meta_bstar": 7.199e-05,
        "meta_mean_motion_dot": 1.15e-06,
        "meta_mean_motion_ddot": 0,
        "tle_line1": "1 64877U 25155B   25336.47098491  .00000115  00000+0  71990-4 0  9997",
        "tle_line2": "2 64877  98.5767 298.5482 0001763  74.1571 285.9801 14.21437888 18453"
      },
      "geometry": {
        "type": "Point",
        "coordinates": [
          -65.3989205030275,
          26.749702534772275
        ]
      }
    },
    {
      "type": "Feature",
      "properties": {
        "norad_id": 64899,
        "name": "MICROCARB",
        "group": "resource",
        "lat": -11.927217793134856,
        "lon": -129.30159608272479,
        "alt_km": 647.9286014979298,
        "timestamp": "2025-12-02T21:34:00.931180+00:00",
        "meta_object_name": "MICROCARB",
        "meta_object_id": "2025-156A",
        "meta_epoch": "2025-12-02T04:23:02.947200",
        "meta_mean_motion": 14.72028029,
        "meta_eccentricity": 0.0016451,
        "meta_inclination": 98.0036,
        "meta_ra_of_asc_node": 51.697,
        "meta_arg_of_pericenter": 177.5661,
        "meta_mean_anomaly": 182.5629,
        "meta_ephemeris_type": 0,
        "meta_classification_type": "U",
        "meta_norad_cat_id": 64899,
        "meta_element_set_no": 999,
        "meta_rev_at_epoch": 1898,
        "meta_bstar": 0.00015451,
        "meta_mean_motion_dot": 9.22e-06,
        "meta_mean_motion_ddot": 0,
        "tle_line1": "1 64899U 25156A   25336.18267300  .00000922  00000+0  15451-3 0  9992",
        "tle_line2": "2 64899  98.0036  51.6970 0016451 177.5661 182.5629 14.72028029 18986"
      },
      "geometry": {
        "type": "Point",
        "coordinates": [
          -129.30159608272479,
          -11.927217793134856
        ]
      }
    },
    {
      "type": "Feature",
      "properties": {
        "norad_id": 64900,
        "name": "CO3D 3",
        "group": "resource",
        "lat": -46.19881349924103,
        "lon": -135.66785807456958,
        "alt_km": 517.3219964881155,
        "timestamp": "2025-12-02T21:34:00.931190+00:00",
        "meta_object_name": "CO3D 3",
        "meta_object_id": "2025-156B",
        "meta_epoch": "2025-11-29T13:08:11.122944",
        "meta_mean_motion": 15.11495615,
        "meta_eccentricity": 0.01368669,
        "meta_inclination": 97.6723,
        "meta_ra_of_asc_node": 49.0485,
        "meta_arg_of_pericenter": 160.1625,
        "meta_mean_anomaly": 200.5002,
        "meta_ephemeris_type": 0,
        "meta_classification_type": "U",
        "meta_norad_cat_id": 64900,
        "meta_element_set_no": 999,
        "meta_rev_at_epoch": 1920,
        "meta_bstar": 0.00046350794,
        "meta_mean_motion_dot": 9.779e-05,
        "meta_mean_motion_ddot": 0,
        "tle_line1": "1 64900U 25156B   25333.54735096  .00009779  00000+0  46351-3 0  9996",
        "tle_line2": "2 64900  97.6723  49.0485 0136866 160.1625 200.5002 15.11495615 19205"
      },
      "geometry": {
        "type": "Point",
        "coordinates": [
          -135.66785807456958,
          -46.19881349924103
        ]
      }
    },
    {
      "type": "Feature",
      "properties": {
        "norad_id": 64901,
        "name": "CO3D 4",
        "group": "resource",
        "lat": -30.39561842321016,
        "lon": 57.800929998480136,
        "alt_km": 511.3575712955353,
        "timestamp": "2025-12-02T21:34:00.931200+00:00",
        "meta_object_name": "CO3D 4",
        "meta_object_id": "2025-156C",
        "meta_epoch": "2025-12-01T18:50:45.474720",
        "meta_mean_motion": 15.20204195,
        "meta_eccentricity": 0.00012108,
        "meta_inclination": 97.4354,
        "meta_ra_of_asc_node": 52.3098,
        "meta_arg_of_pericenter": 238.3057,
        "meta_mean_anomaly": 121.806,
        "meta_ephemeris_type": 0,
        "meta_classification_type": "U",
        "meta_norad_cat_id": 64901,
        "meta_element_set_no": 999,
        "meta_rev_at_epoch": 1954,
        "meta_bstar": -1.4420799e-05,
        "meta_mean_motion_dot": -3.8e-06,
        "meta_mean_motion_ddot": 0,
        "tle_line1": "1 64901U 25156C   25335.78524855 -.00000380  00000+0 -14421-4 0  9999",
        "tle_line2": "2 64901  97.4354  52.3098 0001210 238.3057 121.8060 15.20204195 19549"
      },
      "geometry": {
        "type": "Point",
        "coordinates": [
          57.800929998480136,
          -30.39561842321016
        ]
      }
    }
  ]
}